LEMUR-2-GREENBERG       
1 42837U 17042N   26068.46200528  .00019778  00000+0  72539-3 0  9997
2 42837  97.3781 249.8007 0009157   4.0119 356.1192 15.27971352473146
STARLINK-31149          
1 58863U 24019L   26068.53362764 -.00004203  00000+0 -14324-3 0  9991
2 58863  42.9972 249.3676 0000631 268.5815  91.4965 15.27591575119065
